NORAD_CAT_ID,OBJECT_NAME,OBJECT_TYPE,EPOCH,MEAN_MOTION,ECCENTRICITY,INCLINATION,RA_OF_ASC_NODE,ARG_OF_PERICENTER,MEAN_ANOMALY,BSTAR,MEAN_MOTION_DOT,MEAN_MOTION_DDOT,TLE_LINE0,TLE_LINE1,TLE_LINE2,SEMIMAJOR_AXIS,PERIOD,APOGEE,PERIGEE,DECAYED
55965.0,STARLINK-5894,PAYLOAD,2024-02-09 03:23:55,14.98330861,0.0002932,70.0009,19.4101,268.8635,91.2188,-2.5627e-05,-3.99e-06,0.0,0 STARLINK-5894,1 55965U 23037BD  24040.14161052 -.00000399  00000-0 -25627-4 0  9994,2 55965  70.0009  19.4101 0002932 268.8635  91.2188 14.98330861 51040,6950.19,96.107,574.093,570.017,0.0
55965.0,STARLINK-5894,PAYLOAD,2024-02-09 08:12:19,14.98334109,0.0002901,70.0009,18.9052,268.8118,91.2709,1.4096e-05,7.5e-07,0.0,0 STARLINK-5894,1 55965U 23037BD  24040.34188707  .00000075  00000-0  14096-4 0  9999,2 55965  70.0009  18.9052 0002901 268.8118  91.2709 14.98334109 50734,6950.18,96.107,574.061,570.029,0.0
55965.0,STARLINK-5894,PAYLOAD,2024-02-10 03:25:56,14.98324512,0.0002899,70.0011,16.8857,269.132,90.9506,6.2896e-06,-1.8e-07,0.0,0 STARLINK-5894,1 55965U 23037BD  24041.14301429 -.00000018  00000-0  62896-5 0  9996,2 55965  70.0011  16.8857 0002899 269.1320  90.9506 14.98324512 51191,6950.21,96.107,574.09,570.06,0.0
55965.0,STARLINK-5894,PAYLOAD,2024-02-10 08:14:20,14.9832751,0.0002849,70.0012,16.3803,267.6039,92.4794,2.7608e-05,2.36e-06,0.0,0 STARLINK-5894,1 55965U 23037BD  24041.34329215  .00000236  00000-0  27608-4 0  9993,2 55965  70.0012  16.3803 0002849 267.6039  92.4794 14.98327510 50885,6950.201,96.107,574.046,570.085,0.0
55965.0,STARLINK-5894,PAYLOAD,2024-02-10 22:39:32,14.98333379,0.0002784,70.0015,14.8669,261.7545,98.3299,5.1449e-06,-3.2e-07,0.0,0 STARLINK-5894,1 55965U 23037BD  24041.94412911 -.00000032  00000-0  51449-5 0  9991,2 55965  70.0015  14.8669 0002784 261.7545  98.3299 14.98333379 50971,6950.182,96.107,573.982,570.113,0.0
55965.0,STARLINK-5894,PAYLOAD,2024-02-11 03:27:56,14.98334364,0.0002761,70.0016,14.3616,261.6015,98.4832,1.8396e-05,1.27e-06,0.0,0 STARLINK-5894,1 55965U 23037BD  24042.14440766  .00000127  00000-0  18396-4 0  9990,2 55965  70.0016  14.3616 0002761 261.6015  98.4832 14.98334364 51346,6950.179,96.107,573.963,570.125,0.0
55965.0,STARLINK-5894,PAYLOAD,2024-02-11 08:16:20,14.98337234,0.0002717,70.0018,13.8571,259.9123,100.173,5.1845e-05,5.26e-06,0.0,0 STARLINK-5894,1 55965U 23037BD  24042.34468411  .00000526  00000-0  51845-4 0  9998,2 55965  70.0018  13.8571 0002717 259.9123 100.1730 14.98337234 51036,6950.171,96.107,573.924,570.147,0.0
55965.0,STARLINK-5894,PAYLOAD,2024-02-11 22:41:32,14.98343453,0.0002834,70.0014,12.3406,266.5133,93.5702,0.00016114,1.831e-05,0.0,0 STARLINK-5894,1 55965U 23037BD  24042.94551305  .00001831  00000-0  16114-3 0  9998,2 55965  70.0014  12.3406 0002834 266.5133  93.5702 14.98343453 51122,6950.151,96.106,573.986,570.047,0.0
55965.0,STARLINK-5894,PAYLOAD,2024-02-12 03:29:56,14.9834543,0.0002801,70.0016,11.8357,268.1468,91.937,0.00017641,2.013e-05,0.0,0 STARLINK-5894,1 55965U 23037BD  24043.14578969  .00002013  00000-0  17641-3 0  9995,2 55965  70.0016  11.8357 0002801 268.1468  91.9370 14.98345430 51496,6950.145,96.106,573.957,570.063,0.0
55965.0,STARLINK-5894,PAYLOAD,2024-02-12 08:18:19,14.98352425,0.0002689,70.0017,11.3303,266.5121,93.5731,0.00024966,2.889e-05,0.0,0 STARLINK-5894,1 55965U 23037BD  24043.34606062  .00002889  00000-0  24966-3 0  9992,2 55965  70.0017  11.3303 0002689 266.5121  93.5731 14.98352425 51520,6950.124,96.106,573.857,570.12,0.0
55965.0,STARLINK-5894,PAYLOAD,2024-02-12 22:43:35,14.98318347,0.0003256,70.0018,9.8158,273.7513,86.3274,-0.00022026,-2.719e-05,0.0,0 STARLINK-5894,1 55965U 23037BD  24043.94693348 -.00002719  00000-0 -22026-3 0  9990,2 55965  70.0018   9.8158 0003256 273.7513  86.3274 14.98318347 51276,6950.229,96.108,574.357,569.831,0.0
55965.0,STARLINK-5894,PAYLOAD,2024-02-13 03:31:59,14.98316883,0.0002928,70.0014,9.3105,264.0506,96.032,-0.00024506,-3.015e-05,0.0,0 STARLINK-5894,1 55965U 23037BD  24044.14721563 -.00003015  00000-0 -24506-3 0  9999,2 55965  70.0014   9.3105 0002928 264.0506  96.0320 14.98316883 51643,6950.233,96.108,574.133,570.063,0.0
55965.0,STARLINK-5894,PAYLOAD,2024-02-13 14:44:55,14.9832589,0.000322,70.0006,8.1311,262.6009,97.4785,-0.00019148,-2.377e-05,0.0,0 STARLINK-5894,1 55965U 23037BD  24044.61453003 -.00002377  00000-0 -19148-3 0  9998,2 55965  70.0006   8.1311 0003220 262.6009  97.4785 14.98325890 51376,6950.206,96.107,574.309,569.833,0.0
55965.0,STARLINK-5894,PAYLOAD,2024-02-13 22:45:35,14.98331292,0.0002957,70.0018,7.2909,262.4025,97.6798,-0.00024182,-2.977e-05,0.0,0 STARLINK-5894,1 55965U 23037BD  24044.94832848 -.00002977  00000-0 -24182-3 0  9992,2 55965  70.0018   7.2909 0002957 262.4025  97.6798 14.98331292 51429,6950.189,96.107,574.109,569.999,0.0
55965.0,STARLINK-5894,PAYLOAD,2024-02-14 05:10:07,14.98340618,0.0002943,70.0008,6.6172,266.7899,93.2924,-0.00013788,-1.738e-05,0.0,0 STARLINK-5894,1 55965U 23037BD  24045.21535984 -.00001738  00000-0 -13788-3 0  9998,2 55965  70.0008   6.6172 0002943 266.7899  93.2924 14.98340618 51801,6950.16,96.106,574.07,569.98,0.0
55965.0,STARLINK-5894,PAYLOAD,2024-02-14 06:46:14,14.9834218,0.0002899,70.001,6.4489,266.5874,93.4953,-0.00011116,-1.419e-05,0.0,0 STARLINK-5894,1 55965U 23037BD  24045.28211781 -.00001419  00000-0 -11116-3 0  9990,2 55965  70.0010   6.4489 0002899 266.5874  93.4953 14.98342180 51477,6950.155,96.106,574.035,570.005,0.0
55965.0,STARLINK-5894,PAYLOAD,2024-02-14 22:47:36,14.98311084,0.0002531,70.002,4.766,257.383,102.7046,0.00015745,1.785e-05,0.0,0 STARLINK-5894,1 55965U 23037BD  24045.94973191  .00001785  00000-0  15745-3 0  9999,2 55965  70.0020   4.7660 0002531 257.3830 102.7046 14.98311084 51570,6950.251,96.108,573.875,570.357,0.0
55965.0,STARLINK-5894,PAYLOAD,2024-02-15 03:36:01,14.98312596,0.0003022,70.0002,4.2593,266.5021,93.5792,0.00011064,1.227e-05,0.0,0 STARLINK-5894,1 55965U 23037BD  24046.15001453  .00001227  00000-0  11064-3 0  9997,2 55965  70.0002   4.2593 0003022 266.5021  93.5792 14.98312596 51945,6950.247,96.108,574.212,570.011,0.0
55965.0,STARLINK-5894,PAYLOAD,2024-02-15 06:48:17,14.98314556,0.0002819,70.0007,3.9238,265.8968,94.1869,0.00014394,1.624e-05,0.0,0 STARLINK-5894,1 55965U 23037BD  24046.28353391  .00001624  00000-0  14394-3 0  9992,2 55965  70.0007   3.9238 0002819 265.8968  94.1869 14.98314556 51622,6950.241,96.108,574.065,570.146,0.0
55965.0,STARLINK-5894,PAYLOAD,2024-02-15 22:49:37,14.98327127,0.0002914,70.0006,2.2403,267.7003,92.3822,6.6851e-05,7.05e-06,0.0,0 STARLINK-5894,1 55965U 23037BD  24046.95113140  .00000705  00000-0  66851-4 0  9997,2 55965  70.0006   2.2403 0002914 267.7003  92.3822 14.98327127 51722,6950.202,96.107,574.092,570.041,0.0
55965.0,STARLINK-5894,PAYLOAD,2024-02-16 03:38:01,14.98335283,0.0002945,70.0005,1.7357,268.2234,91.8588,4.8694e-05,4.88e-06,0.0,0 STARLINK-5894,1 55965U 23037BD  24047.15140688  .00000488  00000-0  48694-4 0  9990,2 55965  70.0005   1.7357 0002945 268.2234  91.8588 14.98335283 52095,6950.177,96.107,574.088,569.995,0.0
55965.0,STARLINK-5894,PAYLOAD,2024-02-16 06:50:17,14.98338639,0.0002872,70.0006,1.3988,267.471,92.6121,9.1558e-05,1e-05,0.0,0 STARLINK-5894,1 55965U 23037BD  24047.28492313  .00001000  00000-0  91558-4 0  9997,2 55965  70.0006   1.3988 0002872 267.4710  92.6121 14.98338639 51775,6950.166,96.106,574.027,570.035,0.0
55965.0,STARLINK-5894,PAYLOAD,2024-02-16 21:15:30,14.98320344,0.0002234,70.0014,359.8835,267.5031,92.5872,0.00015922,1.807e-05,0.0,0 STARLINK-5894,1 55965U 23037BD  24047.88577209  .00001807  00000-0  15922-3 0  9996,2 55965  70.0014 359.8835 0002234 267.5031  92.5872 14.98320344 51861,6950.223,96.108,573.64,570.535,0.0
55965.0,STARLINK-5894,PAYLOAD,2024-02-17 03:40:02,14.98331448,0.0002331,70.0013,359.2104,267.4613,92.628,-6.6778e-05,-8.9e-06,0.0,0 STARLINK-5894,1 55965U 23037BD  24048.15281240 -.00000890  00000-0 -66778-4 0  9993,2 55965  70.0013 359.2104 0002331 267.4613  92.6280 14.98331448 52240,6950.188,96.107,573.674,570.433,0.0
55965.0,STARLINK-5894,PAYLOAD,2024-02-17 13:16:51,14.98345414,0.0002562,70.0021,358.2028,268.9942,91.0923,-0.00035759,-4.359e-05,0.0,0 STARLINK-5894,1 55965U 23037BD  24048.55336967 -.00004359  00000-0 -35759-3 0  9992,2 55965  70.0021 358.2028 0002562 268.9942  91.0923 14.98345414 51963,6950.145,96.106,573.791,570.23,0.0
55965.0,STARLINK-5894,PAYLOAD,2024-02-17 22:53:39,14.98330876,0.0002774,70.0012,357.1913,269.9494,90.1347,-4.0703e-06,-1.42e-06,0.0,0 STARLINK-5894,1 55965U 23037BD  24048.95393045 -.00000142  00000-0 -40703-5 0  9999,2 55965  70.0012 357.1913 0002774 269.9494  90.1347 14.98330876 52026,6950.19,96.107,573.983,570.127,0.0
55965.0,STARLINK-5894,PAYLOAD,2024-02-18 03:42:03,14.98332335,0.0002938,70.0016,356.6862,273.9122,86.1701,1.8883e-05,1.32e-06,0.0,0 STARLINK-5894,1 55965U 23037BD  24049.15420860  .00000132  00000-0  18883-4 0  9998,2 55965  70.0016 356.6862 0002938 273.9122  86.1701 14.98332335 52393,6950.186,96.107,574.093,570.009,0.0
55965.0,STARLINK-5894,PAYLOAD,2024-02-18 13:18:51,14.983564,0.0002626,70.0019,355.6758,274.001,86.0849,-0.00034062,-4.157e-05,0.0,0 STARLINK-5894,1 55965U 23037BD  24049.55475914 -.00004157  00000-0 -34062-3 0  9991,2 55965  70.0019 355.6758 0002626 274.0010  86.0849 14.98356400 52112,6950.111,96.105,573.801,570.151,0.0
55965.0,STARLINK-5894,PAYLOAD,2024-02-18 22:55:40,14.98316864,0.000273,70.002,354.6662,269.1496,90.935,0.00026899,3.117e-05,0.0,0 STARLINK-5894,1 55965U 23037BD  24049.95532732  .00003117  00000-0  26899-3 0  9999,2 55965  70.0020 354.6662 0002730 269.1496  90.9350 14.98316864 52173,6950.234,96.108,573.996,570.201,0.0
55965.0,STARLINK-5894,PAYLOAD,2024-02-19 03:44:04,14.98333116,0.0002563,70.0017,354.1621,262.0976,97.9892,6.438e-05,6.75e-06,0.0,0 STARLINK-5894,1 55965U 23037BD  24050.15560330  .00000675  00000-0  64380-4 0  9992,2 55965  70.0017 354.1621 0002563 262.0976  97.9892 14.98333116 52546,6950.183,96.107,573.83,570.267,0.0
